start=new Date('2023-06-16T00:00:00.000Z').valueOf();
sats=[{"CLASSIFICATION_TYPE":"U","OBJECT_NAME":"STARLINK-3118","ECCENTRICITY":"0.00032530","PERIOD":"96.107","MEAN_MOTION_DOT":"0.00000405","INCLINATION":"69.9993","OBJECT_ID":"2021-082L","GP_ID":"234018949","BSTAR":"0.00004170600000","OBJECT_TYPE":"PAYLOAD","SEMIMAJOR_AXIS":"6950.194","TLE_LINE2":"2 49140  69.9993 250.9633 0003253 262.9410  97.1379 14.98329739 97467","EPHEMERIS_TYPE":"0","RA_OF_ASC_NODE":"250.9633","MEAN_MOTION":"14.98329739","CENTER_NAME":"EARTH","APOAPSIS":"574.320","SITE":"AFWTR","LAUNCH_DATE":"2021-09-14","DECAY_DATE":null,"FILE":"3934071","EPOCH":"2023-06-15T14:38:42.664992","MEAN_ELEMENT_THEORY":"SGP4","MEAN_ANOMALY":"97.1379","COUNTRY_CODE":"US","NORAD_CAT_ID":"49140","RCS_SIZE":"LARGE","MEAN_MOTION_DDOT":"0.0000000000000","TIME_SYSTEM":"UTC","TLE_LINE1":"1 49140U 21082L   23166.61021603  .00000405  00000-0  41706-4 0  9999","REF_FRAME":"TEME","ELEMENT_SET_NO":"999","ARG_OF_PERICENTER":"262.9410","PERIAPSIS":"569.798","REV_AT_EPOCH":"9746"},{"OBJECT_NAME":"STARLINK-3093","ECCENTRICITY":"0.00033490","CLASSIFICATION_TYPE":"U","INCLINATION":"69.9999","MEAN_MOTION_DOT":"-0.00007822","PERIOD":"96.104","GP_ID":"234019698","OBJECT_ID":"2021-082M","SEMIMAJOR_AXIS":"6950.062","OBJECT_TYPE":"PAYLOAD","BSTAR":"-0.00064777000000","MEAN_MOTION":"14.98372292","RA_OF_ASC_NODE":"290.7143","EPHEMERIS_TYPE":"0","TLE_LINE2":"2 49141  69.9999 290.7143 0003349 269.1161  90.9614 14.98372292 97690","SITE":"AFWTR","CENTER_NAME":"EARTH","APOAPSIS":"574.255","FILE":"3934071","EPOCH":"2023-06-15T17:09:34.555392","LAUNCH_DATE":"2021-09-14","DECAY_DATE":null,"MEAN_ANOMALY":"90.9614","MEAN_ELEMENT_THEORY":"SGP4","COUNTRY_CODE":"US","RCS_SIZE":"LARGE","MEAN_MOTION_DDOT":"0.0000000000000","NORAD_CAT_ID":"49141","TLE_LINE1":"1 49141U 21082M   23166.71498328 -.00007822  00000-0 -64777-3 0  9997","TIME_SYSTEM":"UTC","REF_FRAME":"TEME","ARG_OF_PERICENTER":"269.1161","ELEMENT_SET_NO":"999","REV_AT_EPOCH":"9769","PERIAPSIS":"569.600"},{"CLASSIFICATION_TYPE":"U","ECCENTRICITY":"0.00022370","OBJECT_NAME":"STARLINK-3042","PERIOD":"96.104","INCLINATION":"69.9998","MEAN_MOTION_DOT":"-0.00005377","OBJECT_ID":"2021-082N","GP_ID":"234019938","BSTAR":"-0.00044260000000","OBJECT_TYPE":"PAYLOAD","SEMIMAJOR_AXIS":"6950.034","EPHEMERIS_TYPE":"0","TLE_LINE2":"2 49142  69.9998 250.6409 0002237 270.2581  89.8321 14.98381529 97486","MEAN_MOTION":"14.98381529","RA_OF_ASC_NODE":"250.6409","APOAPSIS":"573.453","CENTER_NAME":"EARTH","SITE":"AFWTR","DECAY_DATE":null,"LAUNCH_DATE":"2021-09-14","FILE":"3934071","EPOCH":"2023-06-15T17:44:57.398208","MEAN_ANOMALY":"89.8321","MEAN_ELEMENT_THEORY":"SGP4","COUNTRY_CODE":"US","NORAD_CAT_ID":"49142","MEAN_MOTION_DDOT":"0.0000000000000","RCS_SIZE":"LARGE","TIME_SYSTEM":"UTC","TLE_LINE1":"1 49142U 21082N   23166.73955322 -.00005377  00000-0 -44260-3 0  9990","REF_FRAME":"TEME","ARG_OF_PERICENTER":"270.2581","ELEMENT_SET_NO":"999","REV_AT_EPOCH":"9748","PERIAPSIS":"570.344"},{"DECAY_DATE":null,"LAUNCH_DATE":"2021-09-14","EPOCH":"2023-06-15T16:21:11.464416","FILE":"3934071","MEAN_ANOMALY":"90.0939","MEAN_ELEMENT_THEORY":"SGP4","COUNTRY_CODE":"US","NORAD_CAT_ID":"49143","MEAN_MOTION_DDOT":"0.0000000000000","RCS_SIZE":"LARGE","TIME_SYSTEM":"UTC","TLE_LINE1":"1 49143U 21082P   23166.68138269  .00000208  00000-0  25262-4 0  9996","REF_FRAME":"TEME","ELEMENT_SET_NO":"999","ARG_OF_PERICENTER":"269.9843","PERIAPSIS":"569.782","REV_AT_EPOCH":"9809","CLASSIFICATION_TYPE":"U","ECCENTRICITY":"0.00032850","OBJECT_NAME":"STARLINK-3109","PERIOD":"96.107","MEAN_MOTION_DOT":"0.00000208","INCLINATION":"69.9991","OBJECT_ID":"2021-082P","GP_ID":"234019199","OBJECT_TYPE":"PAYLOAD","BSTAR":"0.00002526200000","SEMIMAJOR_AXIS":"6950.200","EPHEMERIS_TYPE":"0","TLE_LINE2":"2 49143  69.9991 270.7883 0003285 269.9843  90.0939 14.98327691 98096","RA_OF_ASC_NODE":"270.7883","MEAN_MOTION":"14.98327691","CENTER_NAME":"EARTH","APOAPSIS":"574.348","SITE":"AFWTR"},{"CLASSIFICATION_TYPE":"U","ECCENTRICITY":"0.00032160","OBJECT_NAME":"STARLINK-3100","OBJECT_ID":"2021-082Q","GP_ID":"234019449","PERIOD":"96.107","MEAN_MOTION_DOT":"0.00001066","INCLINATION":"70.0000","EPHEMERIS_TYPE":"0","TLE_LINE2":"2 49144  70.0000 290.7140 0003216 270.5038  89.5753 14.98335594 96497","RA_OF_ASC_NODE":"290.7140","MEAN_MOTION":"14.98335594","BSTAR":"0.00009707400000","OBJECT_TYPE":"PAYLOAD","SEMIMAJOR_AXIS":"6950.176","APOAPSIS":"574.276","CENTER_NAME":"EARTH","SITE":"AFWTR","MEAN_ANOMALY":"89.5753","MEAN_ELEMENT_THEORY":"SGP4","LAUNCH_DATE":"2021-09-14","DECAY_DATE":null,"EPOCH":"2023-06-15T16:57:33.976800","FILE":"3934071","NORAD_CAT_ID":"49144","MEAN_MOTION_DDOT":"0.0000000000000","RCS_SIZE":"LARGE","COUNTRY_CODE":"US","REF_FRAME":"TEME","TIME_SYSTEM":"UTC","TLE_LINE1":"1 49144U 21082Q   23166.70664325  .00001066  00000-0  97074-4 0  9990","PERIAPSIS":"569.805","REV_AT_EPOCH":"9649","ELEMENT_SET_NO":"999","ARG_OF_PERICENTER":"270.5038"},{"REV_AT_EPOCH":"9747","PERIAPSIS":"569.765","ARG_OF_PERICENTER":"272.1117","ELEMENT_SET_NO":"999","REF_FRAME":"TEME","TLE_LINE1":"1 49145U 21082R   23166.72286999  .00000623  00000-0  60025-4 0  9994","TIME_SYSTEM":"UTC","MEAN_MOTION_DDOT":"0.0000000000000","RCS_SIZE":"LARGE","NORAD_CAT_ID":"49145","COUNTRY_CODE":"US","MEAN_ELEMENT_THEORY":"SGP4","MEAN_ANOMALY":"87.9666","EPOCH":"2023-06-15T17:20:55.967136","FILE":"3934071","LAUNCH_DATE":"2021-09-14","DECAY_DATE":null,"SITE":"AFWTR","APOAPSIS":"574.328","CENTER_NAME":"EARTH","MEAN_MOTION":"14.98333720","RA_OF_ASC_NODE":"250.6677","TLE_LINE2":"2 49145  69.9993 250.6677 0003283 272.1117  87.9666 14.98333720 97479","EPHEMERIS_TYPE":"0","SEMIMAJOR_AXIS":"6950.181","BSTAR":"0.00006002500000","OBJECT_TYPE":"PAYLOAD","GP_ID":"234020198","OBJECT_ID":"2021-082R","INCLINATION":"69.9993","MEAN_MOTION_DOT":"0.00000623","PERIOD":"96.107","OBJECT_NAME":"STARLINK-3119","ECCENTRICITY":"0.00032830","CLASSIFICATION_TYPE":"U"},{"MEAN_MOTION":"14.98327627","RA_OF_ASC_NODE":"270.6349","TLE_LINE2":"2 49146  70.0000 270.6349 0003341 271.0954  88.9822 14.98327627 98141","EPHEMERIS_TYPE":"0","SEMIMAJOR_AXIS":"6950.200","BSTAR":"0.00004339900000","OBJECT_TYPE":"PAYLOAD","SITE":"AFWTR","APOAPSIS":"574.387","CENTER_NAME":"EARTH","ECCENTRICITY":"0.00033410","OBJECT_NAME":"STARLINK-3116","CLASSIFICATION_TYPE":"U","GP_ID":"234020438","OBJECT_ID":"2021-082S","MEAN_MOTION_DOT":"0.00000425","INCLINATION":"70.0000","PERIOD":"96.107","REF_FRAME":"TEME","TLE_LINE1":"1 49146U 21082S   23166.74397017  .00000425  00000-0  43399-4 0  9996","TIME_SYSTEM":"UTC","REV_AT_EPOCH":"9814","PERIAPSIS":"569.743","ARG_OF_PERICENTER":"271.0954","ELEMENT_SET_NO":"999","MEAN_ELEMENT_THEORY":"SGP4","MEAN_ANOMALY":"88.9822","FILE":"3934071","EPOCH":"2023-06-15T17:51:19.022688","LAUNCH_DATE":"2021-09-14","DECAY_DATE":null,"RCS_SIZE":"LARGE","MEAN_MOTION_DDOT":"0.0000000000000","NORAD_CAT_ID":"49146","COUNTRY_CODE":"US"},{"CLASSIFICATION_TYPE":"U","ECCENTRICITY":"0.00032090","OBJECT_NAME":"STARLINK-3071","OBJECT_ID":"2021-082T","GP_ID":"234018700","PERIOD":"96.107","MEAN_MOTION_DOT":"-0.00000071","INCLINATION":"70.0001","TLE_LINE2":"2 49147  70.0001 250.8244 0003209 274.3084  85.7709 14.98330066 97475","EPHEMERIS_TYPE":"0","MEAN_MOTION":"14.98330066","RA_OF_ASC_NODE":"250.8244","BSTAR":"0.00000186890000","OBJECT_TYPE":"PAYLOAD","SEMIMAJOR_AXIS":"6950.193","CENTER_NAME":"EARTH","APOAPSIS":"574.288","SITE":"AFWTR","MEAN_ANOMALY":"85.7709","MEAN_ELEMENT_THEORY":"SGP4","LAUNCH_DATE":"2021-09-14","DECAY_DATE":null,"FILE":"3934071","EPOCH":"2023-06-15T16:02:49.915392","NORAD_CAT_ID":"49147","MEAN_MOTION_DDOT":"0.0000000000000","RCS_SIZE":"LARGE","COUNTRY_CODE":"US","REF_FRAME":"TEME","TIME_SYSTEM":"UTC","TLE_LINE1":"1 49147U 21082T   23166.66863328 -.00000071  00000-0  18689-5 0  9994","REV_AT_EPOCH":"9747","PERIAPSIS":"569.827","ARG_OF_PERICENTER":"274.3084","ELEMENT_SET_NO":"999"},{"CLASSIFICATION_TYPE":"U","ECCENTRICITY":"0.00031060","OBJECT_NAME":"STARLINK-3048","PERIOD":"96.107","MEAN_MOTION_DOT":"-0.00000070","INCLINATION":"69.9996","OBJECT_ID":"2021-082U","GP_ID":"234018950","OBJECT_TYPE":"PAYLOAD","BSTAR":"0.00000195690000","SEMIMAJOR_AXIS":"6950.198","TLE_LINE2":"2 49148  69.9996 270.6350 0003106 269.6733  90.4070 14.98328369 96980","EPHEMERIS_TYPE":"0","RA_OF_ASC_NODE":"270.6350","MEAN_MOTION":"14.98328369","CENTER_NAME":"EARTH","APOAPSIS":"574.222","SITE":"AFWTR","DECAY_DATE":null,"LAUNCH_DATE":"2021-09-14","FILE":"3934071","EPOCH":"2023-06-15T17:39:18.017280","MEAN_ELEMENT_THEORY":"SGP4","MEAN_ANOMALY":"90.4070","COUNTRY_CODE":"US","NORAD_CAT_ID":"49148","RCS_SIZE":"LARGE","MEAN_MOTION_DDOT":"0.0000000000000","TIME_SYSTEM":"UTC","TLE_LINE1":"1 49148U 21082U   23166.73562520 -.00000070  00000-0  19569-5 0  9990","REF_FRAME":"TEME","ELEMENT_SET_NO":"999","ARG_OF_PERICENTER":"269.6733","PERIAPSIS":"569.904","REV_AT_EPOCH":"9698"},{"REF_FRAME":"TEME","TLE_LINE1":"1 49149U 21082V   23166.76922984  .00000799  00000-0  74729-4 0  9993","TIME_SYSTEM":"UTC","PERIAPSIS":"569.744","REV_AT_EPOCH":"9769","ELEMENT_SET_NO":"999","ARG_OF_PERICENTER":"270.7198","MEAN_ANOMALY":"89.3582","MEAN_ELEMENT_THEORY":"SGP4","FILE":"3934071","EPOCH":"2023-06-15T18:27:41.458176","DECAY_DATE":null,"LAUNCH_DATE":"2021-09-14","MEAN_MOTION_DDOT":"0.0000000000000","RCS_SIZE":"LARGE","NORAD_CAT_ID":"49149","COUNTRY_CODE":"US","RA_OF_ASC_NODE":"290.5597","MEAN_MOTION":"14.98335719","TLE_LINE2":"2 49149  70.0000 290.5597 0003304 270.7198  89.3582 14.98335719 97693","EPHEMERIS_TYPE":"0","SEMIMAJOR_AXIS":"6950.175","BSTAR":"0.00007472900000","OBJECT_TYPE":"PAYLOAD","SITE":"AFWTR","APOAPSIS":"574.337","CENTER_NAME":"EARTH","OBJECT_NAME":"STARLINK-3053","ECCENTRICITY":"0.00033040","CLASSIFICATION_TYPE":"U","GP_ID":"234019699","OBJECT_ID":"2021-082V","INCLINATION":"70.0000","MEAN_MOTION_DOT":"0.00000799","PERIOD":"96.107"}];
